{
  "norad_id": 61661,
  "name": "STARLINK-32238",
  "history": [
    {
      "epoch": "2026-03-28T04:07:20.737920Z",
      "apogee_km": 476.4521068151489,
      "perigee_km": 473.97928009629595,
      "latitude_deg": 2.0530628248424846e-05,
      "longitude_deg": 117.91736958275278,
      "height_km": 476.8015482847027,
      "semi_major_axis_km": 6853.352693455722,
      "eccentricity": 0.00018041,
      "inclination_deg": 53.1633,
      "raan_deg": 5.3498,
      "arg_perigee_deg": 123.7971,
      "mean_anomaly_deg": 236.3202,
      "mean_motion_rev_day": 15.30199791
    },
    {
      "epoch": "2026-03-30T03:08:56.904288Z",
      "apogee_km": 476.0562667277218,
      "perigee_km": 474.4141987407593,
      "latitude_deg": -4.9059509739757496e-05,
      "longitude_deg": 121.48750640902294,
      "height_km": 476.3182582917034,
      "semi_major_axis_km": 6853.37223273424,
      "eccentricity": 0.0001198,
      "inclination_deg": 53.165,
      "raan_deg": 356.252,
      "arg_perigee_deg": 102.9699,
      "mean_anomaly_deg": 257.1435,
      "mean_motion_rev_day": 15.30193247
    },
    {
      "epoch": "2026-03-30T10:59:13.251264Z",
      "apogee_km": 476.01061100184506,
      "perigee_km": 474.48710332579776,
      "latitude_deg": 1.8582034864000772e-06,
      "longitude_deg": 2.0814422615702926,
      "height_km": 476.1868797456577,
      "semi_major_axis_km": 6853.385857163821,
      "eccentricity": 0.00011115,
      "inclination_deg": 53.164,
      "raan_deg": 354.7359,
      "arg_perigee_deg": 92.9577,
      "mean_anomaly_deg": 267.1551,
      "mean_motion_rev_day": 15.30188684
    }
  ]
}